[{"OBJECT_NAME":"INTELSAT 33E DEB","OBJECT_ID":"2016-053AL","EPOCH":"2026-03-26T18:27:16.369344","MEAN_MOTION":0.98889497,"ECCENTRICITY":0.01278242,"INCLINATION":1.2607,"RA_OF_ASC_NODE":69.0263,"ARG_OF_PERICENTER":43.5032,"MEAN_ANOMALY":318.2821,"EPHEMERIS_TYPE":0,"CLASSIFICATION_TYPE":"U","NORAD_CAT_ID":64406,"ELEMENT_SET_NO":999,"REV_AT_EPOCH":502,"BSTAR":0,"MEAN_MOTION_DOT":-3.24e-6,"MEAN_MOTION_DDOT":0},{"OBJECT_NAME":"INTELSAT 33E DEB","OBJECT_ID":"2016-053AN","EPOCH":"2026-04-04T22:03:18.305568","MEAN_MOTION":1.03208544,"ECCENTRICITY":0.18159741,"INCLINATION":2.2139,"RA_OF_ASC_NODE":97.5233,"ARG_OF_PERICENTER":290.4204,"MEAN_ANOMALY":51.4669,"EPHEMERIS_TYPE":0,"CLASSIFICATION_TYPE":"U","NORAD_CAT_ID":64408,"ELEMENT_SET_NO":999,"REV_AT_EPOCH":532,"BSTAR":0,"MEAN_MOTION_DOT":-2.49e-6,"MEAN_MOTION_DDOT":0},{"OBJECT_NAME":"INTELSAT 33E DEB","OBJECT_ID":"2016-053AP","EPOCH":"2026-04-04T19:06:51.676416","MEAN_MOTION":0.99471138,"ECCENTRICITY":0.00525871,"INCLINATION":1.3361,"RA_OF_ASC_NODE":79.217,"ARG_OF_PERICENTER":77.4054,"MEAN_ANOMALY":283.8981,"EPHEMERIS_TYPE":0,"CLASSIFICATION_TYPE":"U","NORAD_CAT_ID":64409,"ELEMENT_SET_NO":999,"REV_AT_EPOCH":513,"BSTAR":0,"MEAN_MOTION_DOT":-2.62e-6,"MEAN_MOTION_DDOT":0},{"OBJECT_NAME":"INTELSAT 33E DEB","OBJECT_ID":"2016-053AQ","EPOCH":"2026-04-03T22:49:14.217600","MEAN_MOTION":0.99986541,"ECCENTRICITY":0.0066391,"INCLINATION":1.2686,"RA_OF_ASC_NODE":69.8057,"ARG_OF_PERICENTER":350.4874,"MEAN_ANOMALY":10.0734,"EPHEMERIS_TYPE":0,"CLASSIFICATION_TYPE":"U","NORAD_CAT_ID":64410,"ELEMENT_SET_NO":999,"REV_AT_EPOCH":514,"BSTAR":0,"MEAN_MOTION_DOT":-5.3e-7,"MEAN_MOTION_DDOT":0},{"OBJECT_NAME":"COSMOS 2589","OBJECT_ID":"2025-131A","EPOCH":"2026-04-03T13:17:19.591008","MEAN_MOTION":1.00284936,"ECCENTRICITY":0.0444973,"INCLINATION":0.1269,"RA_OF_ASC_NODE":354.5994,"ARG_OF_PERICENTER":114.2923,"MEAN_ANOMALY":17.2415,"EPHEMERIS_TYPE":0,"CLASSIFICATION_TYPE":"U","NORAD_CAT_ID":64467,"ELEMENT_SET_NO":999,"REV_AT_EPOCH":281,"BSTAR":0,"MEAN_MOTION_DOT":-3.38e-6,"MEAN_MOTION_DDOT":0},{"OBJECT_NAME":"CHINASAT 9C","OBJECT_ID":"2025-132A","EPOCH":"2026-04-05T03:03:38.763072","MEAN_MOTION":1.00271451,"ECCENTRICITY":0.00028283,"INCLINATION":0.0387,"RA_OF_ASC_NODE":93.8453,"ARG_OF_PERICENTER":281.09,"MEAN_ANOMALY":316.6164,"EPHEMERIS_TYPE":0,"CLASSIFICATION_TYPE":"U","NORAD_CAT_ID":64470,"ELEMENT_SET_NO":999,"REV_AT_EPOCH":341,"BSTAR":0,"MEAN_MOTION_DOT":-2.46e-6,"MEAN_MOTION_DDOT":0},{"OBJECT_NAME":"COSMOS 2590","OBJECT_ID":"2025-131D","EPOCH":"2026-04-03T11:44:01.140576","MEAN_MOTION":1.00257222,"ECCENTRICITY":0.3657809,"INCLINATION":0.1739,"RA_OF_ASC_NODE":51.0154,"ARG_OF_PERICENTER":48.4426,"MEAN_ANOMALY":14.9513,"EPHEMERIS_TYPE":0,"CLASSIFICATION_TYPE":"U","NORAD_CAT_ID":64527,"ELEMENT_SET_NO":999,"REV_AT_EPOCH":286,"BSTAR":0,"MEAN_MOTION_DOT":-3.04e-6,"MEAN_MOTION_DDOT":0},{"OBJECT_NAME":"MTG-S1","OBJECT_ID":"2025-143A","EPOCH":"2026-04-05T02:27:37.636416","MEAN_MOTION":1.00273594,"ECCENTRICITY":0.00020591,"INCLINATION":0.6196,"RA_OF_ASC_NODE":332.4344,"ARG_OF_PERICENTER":359.3781,"MEAN_ANOMALY":254.9879,"EPHEMERIS_TYPE":0,"CLASSIFICATION_TYPE":"U","NORAD_CAT_ID":64723,"ELEMENT_SET_NO":999,"REV_AT_EPOCH":268,"BSTAR":0,"MEAN_MOTION_DOT":-3.1e-7,"MEAN_MOTION_DDOT":0},{"OBJECT_NAME":"DROR 1","OBJECT_ID":"2025-148A","EPOCH":"2026-04-05T05:52:47.701920","MEAN_MOTION":1.00271836,"ECCENTRICITY":0.00036161,"INCLINATION":0.0509,"RA_OF_ASC_NODE":68.6357,"ARG_OF_PERICENTER":296.2543,"MEAN_ANOMALY":272.8453,"EPHEMERIS_TYPE":0,"CLASSIFICATION_TYPE":"U","NORAD_CAT_ID":64784,"ELEMENT_SET_NO":999,"REV_AT_EPOCH":256,"BSTAR":0,"MEAN_MOTION_DOT":-3.3e-7,"MEAN_MOTION_DDOT":0},{"OBJECT_NAME":"SHIYAN-29","OBJECT_ID":"2025-196A","EPOCH":"2026-04-05T00:07:45.070464","MEAN_MOTION":1.00279347,"ECCENTRICITY":0.0009615,"INCLINATION":28.7451,"RA_OF_ASC_NODE":19.4581,"ARG_OF_PERICENTER":177.4148,"MEAN_ANOMALY":93.8716,"EPHEMERIS_TYPE":0,"CLASSIFICATION_TYPE":"U","NORAD_CAT_ID":65486,"ELEMENT_SET_NO":999,"REV_AT_EPOCH":214,"BSTAR":0,"MEAN_MOTION_DOT":-2.76e-6,"MEAN_MOTION_DDOT":0},{"OBJECT_NAME":"NUSANTARA LIMA (NUSANTARA 5)","OBJECT_ID":"2025-205A","EPOCH":"2026-04-05T01:18:06.804288","MEAN_MOTION":1.00272964,"ECCENTRICITY":9.492e-5,"INCLINATION":0.0433,"RA_OF_ASC_NODE":43.5336,"ARG_OF_PERICENTER":12.216,"MEAN_ANOMALY":270.0094,"EPHEMERIS_TYPE":0,"CLASSIFICATION_TYPE":"U","NORAD_CAT_ID":65588,"ELEMENT_SET_NO":999,"REV_AT_EPOCH":198,"BSTAR":0,"MEAN_MOTION_DOT":-3.57e-6,"MEAN_MOTION_DDOT":0},{"OBJECT_NAME":"TJS-20","OBJECT_ID":"2025-238A","EPOCH":"2026-04-05T04:22:38.761248","MEAN_MOTION":1.00271366,"ECCENTRICITY":0.00084725,"INCLINATION":5.6327,"RA_OF_ASC_NODE":299.8224,"ARG_OF_PERICENTER":103.8939,"MEAN_ANOMALY":277.794,"EPHEMERIS_TYPE":0,"CLASSIFICATION_TYPE":"U","NORAD_CAT_ID":66142,"ELEMENT_SET_NO":999,"REV_AT_EPOCH":160,"BSTAR":0,"MEAN_MOTION_DOT":2.1e-7,"MEAN_MOTION_DDOT":0},{"OBJECT_NAME":"SPAINSAT NG II","OBJECT_ID":"2025-239A","EPOCH":"2026-04-04T09:40:57.842400","MEAN_MOTION":0.96784638,"ECCENTRICITY":0.7641582,"INCLINATION":14.4427,"RA_OF_ASC_NODE":230.9098,"ARG_OF_PERICENTER":204.8709,"MEAN_ANOMALY":79.6175,"EPHEMERIS_TYPE":0,"CLASSIFICATION_TYPE":"U","NORAD_CAT_ID":66144,"ELEMENT_SET_NO":999,"REV_AT_EPOCH":163,"BSTAR":0,"MEAN_MOTION_DOT":-1.12e-6,"MEAN_MOTION_DDOT":0},{"OBJECT_NAME":"CMS-03 (GSAT-7R)","OBJECT_ID":"2025-249B","EPOCH":"2026-04-05T04:32:10.692096","MEAN_MOTION":1.00272319,"ECCENTRICITY":0.00038831,"INCLINATION":0.0477,"RA_OF_ASC_NODE":264.7517,"ARG_OF_PERICENTER":101.8949,"MEAN_ANOMALY":328.8996,"EPHEMERIS_TYPE":0,"CLASSIFICATION_TYPE":"U","NORAD_CAT_ID":66311,"ELEMENT_SET_NO":999,"REV_AT_EPOCH":161,"BSTAR":0,"MEAN_MOTION_DOT":-7.6e-7,"MEAN_MOTION_DDOT":0},{"OBJECT_NAME":"VIASAT-3 F2","OBJECT_ID":"2025-261A","EPOCH":"2026-04-05T04:03:38.630304","MEAN_MOTION":1.00272389,"ECCENTRICITY":0.00027418,"INCLINATION":0.0392,"RA_OF_ASC_NODE":270.4026,"ARG_OF_PERICENTER":172.6931,"MEAN_ANOMALY":92.3082,"EPHEMERIS_TYPE":0,"CLASSIFICATION_TYPE":"U","NORAD_CAT_ID":66454,"ELEMENT_SET_NO":999,"REV_AT_EPOCH":205,"BSTAR":0,"MEAN_MOTION_DOT":-2.33e-6,"MEAN_MOTION_DDOT":0},{"OBJECT_NAME":"SHIJIAN-28 (SJ-28)","OBJECT_ID":"2025-277A","EPOCH":"2026-04-05T06:27:21.886848","MEAN_MOTION":1.00273383,"ECCENTRICITY":7.18e-6,"INCLINATION":4.7268,"RA_OF_ASC_NODE":273.2491,"ARG_OF_PERICENTER":175.479,"MEAN_ANOMALY":318.5316,"EPHEMERIS_TYPE":0,"CLASSIFICATION_TYPE":"U","NORAD_CAT_ID":66549,"ELEMENT_SET_NO":999,"REV_AT_EPOCH":142,"BSTAR":0,"MEAN_MOTION_DOT":-3.64e-6,"MEAN_MOTION_DDOT":0},{"OBJECT_NAME":"TJS-21","OBJECT_ID":"2025-269A","EPOCH":"2026-03-25T21:48:07.632288","MEAN_MOTION":2.00654387,"ECCENTRICITY":0.68252684,"INCLINATION":63.311,"RA_OF_ASC_NODE":151.4086,"ARG_OF_PERICENTER":269.3056,"MEAN_ANOMALY":18.6838,"EPHEMERIS_TYPE":0,"CLASSIFICATION_TYPE":"U","NORAD_CAT_ID":66586,"ELEMENT_SET_NO":999,"REV_AT_EPOCH":250,"BSTAR":0,"MEAN_MOTION_DOT":1.086e-5,"MEAN_MOTION_DDOT":0}]
